DIRECTV 15              
1 40663U 15026A   23113.99840904 -.00000106  00000+0  00000+0 0  9992
2 40663   0.0401  84.5951 0000593 214.8744 168.8596  1.00270448 29005
SKY MEXICO-1            
1 40664U 15026B   23113.86619125 -.00000237  00000+0  00000+0 0  9993
2 40664   0.0046 294.4579 0001936  89.0300  61.2163  1.00271060 28917
METEOSAT-11 (MSG-4)     
1 40732U 15034A   23113.88371137  .00000059  00000+0  00000+0 0  9999
2 40732   0.5220  30.5389 0000907  49.6924  98.8919  1.00269592 28485
STAR ONE C4             
1 40733U 15034B   23113.86793455 -.00000268  00000+0  00000+0 0  9992
2 40733   0.0510  59.1558 0002489 335.6602  59.2708  1.00270666 28498
WGS F7 (USA 263)        
1 40746U 15036A   23113.83104968  .00000014  00000+0  00000+0 0  9998
2 40746   0.0138 248.4237 0000341 186.7129 250.6220  1.00272362 28333
INTELSAT 34 (IS-34)     
1 40874U 15039A   23113.29732484 -.00000289  00000+0  00000+0 0  9998
2 40874   0.0175 284.3314 0000386 339.5348 358.7528  1.00271407 28083
EUTELSAT 8 WEST B       
1 40875U 15039B   23113.88031194 -.00000069  00000+0  00000+0 0  9990
2 40875   0.0694   7.5559 0005062  33.8587 119.1600  1.00272393 28110
GSAT-6                  
1 40880U 15041A   23113.89835507 -.00000164  00000+0  00000+0 0  9996
2 40880   0.0392 103.0080 0002155 303.6967 210.9289  1.00272255 28066
INMARSAT 5-F3           
1 40882U 15042A   23113.31374630  .00000047  00000+0  00000+0 0  9990
2 40882   0.0110 222.2447 0000209 216.5242  64.8552  1.00271281 28026
MUOS-4                  
1 40887U 15044A   23113.70466230 -.00000097  00000+0  00000+0 0  9994
2 40887   2.6723  19.5803 0058584 359.8122 160.7945  1.00272022 28025
TJS-1                   
1 40892U 15046A   23113.87063329 -.00000160  00000+0  00000+0 0  9993
2 40892   0.0979  75.6903 0003553 355.8341 248.4938  1.00270170 28023
EXPRESS-AM8             
1 40895U 15048A   23113.87909163 -.00000114  00000+0  00000+0 0  9992
2 40895   0.0122 258.1563 0000305  37.8556 218.1135  1.00271724 27841
BEIDOU-3S IGSO-2S       
1 40938U 15053A   23113.90105716 -.00000141  00000+0  00000+0 0  9992
2 40938  51.0180 272.2854 0046138 192.1498 167.7835  1.00267967 27821
SKY MUSTER 1 (NBN1A)    
1 40940U 15054A   23113.69470449 -.00000282  00000+0  00000+0 0  9996
2 40940   0.0135 263.3938 0001548 116.9529 221.4484  1.00271992 27727
ARSAT 2                 
1 40941U 15054B   23114.01646792 -.00000228  00000+0  00000+0 0  9990
2 40941   0.0173 322.7298 0001601  54.3316 119.6501  1.00272006 27778
MORELOS 3               
1 40946U 15056A   23113.60518241 -.00000049  00000+0  00000+0 0  9999
2 40946   3.3470 340.8191 0002126 358.8436 336.4721  1.00272417 27746
APSTAR 9                
1 40982U 15059A   23111.82479676 -.00000272  00000+0  00000+0 0  9990
2 40982   0.0713  74.5690 0000464 229.2498 344.7031  1.00268470 27590
TURKSAT 4B              
1 40984U 15060A   23113.89181769  .00000111  00000+0  00000+0 0  9997
2 40984   0.0470  80.2233 0002174 293.2471 209.2319  1.00273213 27574
CHINASAT 2C (ZX 2C)     
1 41021U 15063A   23113.75906601 -.00000326  00000+0  00000+0 0  9997
2 41021   0.0705  56.7803 0001764  25.6709 145.6991  1.00266708 27473
GSAT-15                 
1 41028U 15065A   23113.90053418 -.00000261  00000+0  00000+0 0  9990
2 41028   0.0462  93.0877 0002567 325.1743 211.0780  1.00271190 27276
BADR-7 (ARABSAT-6B)     
1 41029U 15065B   23114.05188208  .00000142  00000+0  00000+0 0  9991
2 41029   0.0509 250.3475 0002698 353.8427  12.3090  1.00273184 27375
LAOSAT 1                
1 41034U 15067A   23113.90750736 -.00000347  00000+0  00000+0 0  9991
2 41034   0.0488  63.7771 0002131 295.3969 307.6898  1.00269058 27321
TELSTAR 12V             
1 41036U 15068A   23113.87891730 -.00000122  00000+0  00000+0 0  9991
2 41036   0.0196 255.8623 0002438 124.6270 132.5784  1.00272235 27092
CHINASAT 1C (ZX 1C)     
1 41103U 15073A   23110.89831979 -.00000124  00000+0  00000+0 0  9992
2 41103   4.1614  81.9575 0001187 227.3531 300.9766  1.00272290 27094
ELEKTRO-L 2             
1 41105U 15074A   23113.80726815 -.00000118  00000+0  00000+0 0  9994
2 41105   3.7716  84.4448 0000134 131.7270 271.5576  1.00271239 26981
COSMOS 2513             
1 41121U 15075A   23113.53939778 -.00000142  00000+0  00000+0 0  9994
2 41121   0.0565  96.9489 0001903 302.1556  86.6634  1.00271740 26998
EXPRESS-AMU1            
1 41191U 15082A   23113.81737927  .00000152  00000+0  00000+0 0  9992
2 41191   0.0211 121.0375 0002814 250.7745 170.1223  1.00273662 26737
GAOFEN 4                
1 41194U 15083A   23114.19659140 -.00000338  00000+0  00000+0 0  9995
2 41194   0.0398  25.4000 0003301 175.3836 187.6828  1.00272903 26969
BELINTERSAT-1           
1 41238U 16001A   23113.87341020  .00000103  00000+0  00000+0 0  9993
2 41238   0.0538  70.4390 0000687  74.3283  72.7993  1.00273786 26703
IRNSS-1E                
1 41241U 16003A   23113.80605015 -.00000292  00000+0  00000+0 0  9999
2 41241  30.6802  79.8248 0018230 184.9062 348.7404  1.00268313 26669
EUTELSAT 9B             
1 41310U 16005A   23114.06021687  .00000058  00000+0  00000+0 0  9993
2 41310   0.0637  68.9425 0002373 278.8522 254.6981  1.00271369 26574
SES-9                   
1 41380U 16013A   23113.97514723 -.00000348  00000+0  00000+0 0  9999
2 41380   0.0145 279.6953 0001841 138.2262 253.1676  1.00270937 26217
EUTELSAT 65 WEST A      
1 41382U 16014A   23113.86889336 -.00000279  00000+0  00000+0 0  9998
2 41382   0.0772  55.6330 0001915 335.7253  67.8792  1.00270448 26016
IRNSS-1F                
1 41384U 16015A   23113.88833110  .00000158  00000+0  00000+0 0  9997
2 41384   2.6701 136.5322 0020584 195.6682 231.6549  1.00274096 26137
BEIDOU-2 IGSO-6         
1 41434U 16021A   23112.79493723 -.00000173  00000+0  00000+0 0  9999
2 41434  58.5576  49.6419 0047358 226.4135 315.9896  1.00265635 25935
IRNSS-1G                
1 41469U 16027A   23113.97933115 -.00000335  00000+0  00000+0 0  9998
2 41469   2.5727 138.5200 0006986 301.8120 253.5182  1.00273780 25632
JCSAT-2B                
1 41471U 16028A   23113.98035243 -.00000168  00000+0  00000+0 0  9992
2 41471   0.0187 243.1269 0000781 139.9708 335.5855  1.00272653 25552
THAICOM 8               
1 41552U 16031A   23113.69910517 -.00000125  00000+0  00000+0 0  9993
2 41552   0.0785  58.8754 0005323 348.8670 133.9172  1.00271196 25184
INTELSAT 31 (IS-31)     
1 41581U 16035A   23113.43277419 -.00000154  00000+0  00000+0 0  9990
2 41581   0.0179 247.0742 0002011 334.3933  50.4819  1.00270616 25159
BEIDOU-2 G7             
1 41586U 16037A   23113.91388896 -.00000357  00000+0  00000+0 0  9997
2 41586   1.5678  65.7137 0009115 347.6717 237.8034  1.00276328 25253
ABS-2A (MONGOLSAT-1)    
1 41588U 16038A   23113.96843554 -.00000087  00000+0  00000+0 0  9992
2 41588   0.0090 231.3761 0001637  57.3648 346.3451  1.00271538 25156
EUTELSAT 117 WEST B     
1 41589U 16038B   23113.64355972 -.00000015  00000+0  00000+0 0  9991
2 41589   0.0137  90.9473 0000043 338.3823 256.7915  1.00271800 25134
BRISAT                  
1 41591U 16039A   23113.98035243 -.00000200  00000+0  00000+0 0  9994
2 41591   0.0155 259.5385 0002002 123.1780 332.4577  1.00271307 25117
ECHOSTAR 18             
1 41592U 16039B   23113.43948589 -.00000285  00000+0  00000+0 0  9994
2 41592   0.0142 243.4511 0001321 139.4171 285.2157  1.00269341 25084
MUOS-5                  
1 41622U 16041A   23113.61684104 -.00000172  00000+0  00000+0 0  9996
2 41622   4.8815 298.7495 0192992 242.8378 146.8710  1.00272545 25553
TIANTONG-1 1            
1 41725U 16048A   23114.04548921 -.00000321  00000+0  00000+0 0  9997
2 41725   2.2825  12.7552 0006089   1.1062 315.7219  1.00274877 24735
JCSAT-16                
1 41729U 16050A   23113.90044701 -.00000257  00000+0  00000+0 0  9993
2 41729   0.0785  86.7562 0002444 205.3621 336.7077  1.00271277 24536
USA 270                 
1 41744U 16052A   23111.37193935  .00000004  00000+0  00000+0 0  9994
2 41744   1.2295  91.8308 0000889  93.3160 335.0059  1.00138770  7185
USA 271                 
1 41745U 16052B   23111.25327161  .00000095  00000+0  00000+0 0  9992
2 41745   1.2015  91.8489 0001224  23.2434 203.6072  1.00147173  7177
INTELSAT 36 (IS-36)     
1 41747U 16053A   23113.10692250 -.00000028  00000+0  00000+0 0  9992
2 41747   0.0135 313.9648 0001119  19.0794 344.8296  1.00271368 24404
INTELSAT 33E (IS-33E)   
1 41748U 16053B   23113.86646677  .00000045  00000+0  00000+0 0  9996
2 41748   0.0176 266.4347 0001584 122.0648 195.0685  1.00274520 24712
INSAT-3DR               
1 41752U 16054A   23113.89661177 -.00000081  00000+0  00000+0 0  9998
2 41752   0.1601  90.9201 0011722 189.0183 328.5357  1.00272592 24280
GSAT-18                 
1 41793U 16060A   23113.70466230 -.00000081  00000+0  00000+0 0  9993
2 41793   0.0715  87.6784 0001273 286.8668 164.6023  1.00272365 24000
SKY MUSTER 2 (NBN1B)    
1 41794U 16060B   23113.32731531 -.00000248  00000+0  00000+0 0  9996
2 41794   0.0126 259.3727 0001390 123.1432  91.2170  1.00271696 23984
HIMAWARI-9              
1 41836U 16064A   23113.68799363 -.00000278  00000+0  00000+0 0  9996
2 41836   0.0512  77.5810 0000695 332.3395 189.9762  1.00271423 23656
SHIJIAN-17 (SJ-17)      
1 41838U 16065A   23113.92912737 -.00000364  00000+0  00000+0 0  9994
2 41838   2.8145  86.2013 0001158 159.8996  55.3921  1.00274775 23674
GOES 16                 
1 41866U 16071A   23113.86688858 -.00000251  00000+0  00000+0 0  9994
2 41866   0.0419 281.2961 0000290  78.9307  88.2960  1.00272530 23575
TIANLIAN 1-04           
1 41869U 16072A   23111.64764330  .00000025  00000+0  00000+0 0  9990
2 41869   0.0880 282.1571 0024411 206.8275 130.4235  1.00269631 23757
WGS F8 (USA 272)        
1 41879U 16075A   23113.87063329 -.00000206  00000+0  00000+0 0  9993
2 41879   0.0104 267.4382 0000251 171.2384 236.1836  1.00271746 23284
